OBJECT_NAME,OBJECT_ID,EPOCH,MEAN_MOTION,ECCENTRICITY,INCLINATION,RA_OF_ASC_NODE,ARG_OF_PERICENTER,MEAN_ANOMALY,EPHEMERIS_TYPE,CLASSIFICATION_TYPE,NORAD_CAT_ID,ELEMENT_SET_NO,REV_AT_EPOCH,BSTAR,MEAN_MOTION_DOT,MEAN_MOTION_DDOT
OSCAR 7 (AO-7),1974-089B,2026-07-10T06:51:38.058624,12.53698448,.00126625,101.9903,204.7731,87.4352,340.9074,0,U,7530,999,36341,.81096817E-4,-.33E-6,0
PHASE 3B (AO-10),1983-058B,2026-07-09T16:55:32.549376,2.05870648,.60033527,25.9319,215.8523,121.8543,310.3469,0,U,14129,999,29595,0,.106E-5,0
UOSAT 2 (UO-11),1984-021B,2026-07-09T16:56:58.956288,14.90840274,.00091678,97.8072,156.0317,106.4358,253.7868,0,U,14781,999,26048,.98723401E-4,.917E-5,0
LUSAT (LO-19),1990-005G,2026-07-09T23:54:39.065472,14.34129751,.00123476,98.8846,213.4297,135.6081,224.6095,0,U,20442,999,90566,.35474089E-4,.53E-6,0
EYESAT A (AO-27),1993-061C,2026-07-10T03:28:14.694528,14.30948234,.00090329,98.6870,258.5486,39.7683,320.4160,0,U,22825,999,71028,.30481488E-4,.35E-6,0
ITAMSAT (IO-26),1993-061D,2026-07-10T02:48:43.871616,14.31375759,.0009248,98.6818,258.4411,23.7916,336.3692,0,U,22826,999,71059,.28397099E-4,.31E-6,0
RADIO ROSTO (RS15),1994-085A,2026-07-10T12:43:03.423072,11.27583506,.01567441,64.8160,265.4657,359.5677,0.5088,0,U,23439,999,29853,.14510986E-3,-.37E-6,0
JAS-2 (FO-29),1996-046B,2026-07-10T00:12:21.677472,13.53275218,.03505668,98.5223,36.7525,37.3768,325.1213,0,U,24278,999,47625,.43570331E-4,.9E-7,0
TECHSAT 1B (GO-32),1998-043D,2026-07-10T09:14:26.592864,14.24432755,.00020595,99.0081,184.7300,122.4891,237.6486,0,U,25397,999,45463,.30598468E-4,.24E-6,0
ISS (ZARYA),1998-067A,2026-07-10T08:19:50.601216,15.48968037,.00066879,51.6302,185.4700,278.6359,81.3872,0,U,25544,999,57534,.11130671E-3,.5681E-4,0
PCSAT (NO-44),2001-043C,2026-07-10T08:21:00.364896,14.31963832,.00059708,67.0490,184.3668,266.2489,93.7930,0,U,26931,999,29376,.54387225E-4,.63E-6,0
SAUDISAT 1C (SO-50),2002-058C,2026-07-10T01:57:58.749408,14.83092603,.00746788,64.5517,58.1476,258.2262,101.0460,0,U,27607,999,26785,.75179496E-4,.486E-5,0
CUTE-1 (CO-55),2003-031E,2026-07-10T00:11:45.746304,14.24349450,.00107182,98.6739,199.2802,116.0719,244.1564,0,U,27844,999,19492,.97602803E-4,.182E-5,0
CUBESAT XI-IV (CO-57),2003-031J,2026-07-09T12:23:12.233184,14.23632552,.00103422,98.6771,198.4889,134.3964,225.8063,0,U,27848,999,19455,.91111366E-4,.164E-5,0
MOZHAETS 4 (RS22),2003-042A,2026-07-10T15:29:02.759712,14.73510623,.0010884,98.3480,16.6681,187.7540,261.0597,0,U,27939,999,21900,.1513844E-3,.93E-5,0
CUBESAT XI-V,2005-043F,2026-07-10T08:49:55.529184,14.72694805,.00150968,98.3010,347.4805,129.3634,230.8913,0,U,28895,999,10516,.14886521E-3,.898E-5,0
CUTE-1.7+APD II (CO-65),2008-021C,2026-07-10T13:57:10.804320,15.09672610,.00073749,97.8282,173.4914,318.0281,42.0381,0,U,32785,999,98872,.19354304E-3,.305E-4,0
SEEDS II (CO-66),2008-021J,2026-07-10T10:27:44.320896,15.33559548,.0002534,97.7526,190.4573,167.6964,192.4340,0,U,32791,999,99085,.41058285E-3,.13245E-3,0
YUBILEINY (RS30),2008-025A,2026-07-10T14:21:12.297600,12.43180147,.00185536,82.5056,340.8763,259.6713,100.2276,0,U,32953,999,82260,-.58149968E-3,-.71E-6,0
KKS-1 (KISEKI),2009-002H,2026-07-10T14:23:12.601824,14.83182446,.00070524,98.1178,114.4127,204.7853,155.3023,0,U,33499,999,93966,.96123659E-4,.729E-5,0
SWISSCUBE,2009-051B,2026-07-10T05:23:59.772768,14.62525191,.0007597,98.4015,99.5130,132.4528,227.7317,0,U,35932,999,89252,.12813068E-3,.6E-5,0
BEESAT-1,2009-051C,2026-07-09T13:29:13.081344,14.61756321,.00057994,98.3943,98.4270,144.7622,215.3963,0,U,35933,999,89245,.11590478E-3,.529E-5,0
ITUPSAT1,2009-051E,2026-07-10T04:32:15.089856,14.60474362,.00077396,98.4025,98.2308,157.5053,202.6487,0,U,35935,999,89209,.10252703E-3,.448E-5,0
XIWANG-1 (HOPE-1),2009-072B,2026-07-10T13:48:52.762752,13.16438699,.00074218,100.4031,145.0349,175.2632,184.8552,0,U,36122,999,79608,-.90619866E-3,-.39E-5,0
O/OREOS (USA 219),2010-062C,2026-07-09T23:09:45.136800,14.93839355,.00136796,71.9708,28.7386,15.3805,344.7778,0,U,37224,999,12004,.1364878E-3,.1388E-4,0
JUGNU,2011-058B,2026-07-10T05:53:30.946848,14.13782641,.00184189,19.9589,168.3368,331.7435,144.8891,0,U,37839,999,76229,.55482074E-4,.373E-5,0
SRMSAT,2011-058D,2026-07-10T06:11:51.124704,14.11580397,.00118704,19.9719,279.8299,97.3618,287.0554,0,U,37841,999,76108,.48960392E-4,.355E-5,0
STRAND-1,2013-009E,2026-07-10T10:46:18.460128,14.37177134,.00091491,98.3931,11.1117,154.2343,205.9301,0,U,39090,999,70040,.73430578E-4,.176E-5,0
ZACUBE-1 (TSHEPISOSAT),2013-066B,2026-07-10T11:15:35.395488,15.01316108,.00437413,97.8014,153.9218,170.3489,189.8585,0,U,39417,999,68422,.1306034E-3,.165E-4,0
GOMX-1,2013-066Q,2026-07-10T14:37:20.939232,14.69535778,.01287355,97.6478,30.5941,2.9471,357.2465,0,U,39430,999,67335,.15749002E-3,.1009E-4,0
