ISS (ZARYA)             
1 25544U 98067A   26191.34711344  .00005681  00000+0  11131-3 0  9995
2 25544  51.6302 185.4700 0006687 278.6359  81.3872 15.48968037575345
OSCAR 7 (AO-7)          
1 07530U 74089B   26191.28585716 -.00000033  00000+0  81097-4 0  9999
2 07530 101.9903 204.7731 0012662  87.4352 340.9074 12.53698448363414
PHASE 3B (AO-10)        
1 14129U 83058B   26190.70523784  .00000106  00000+0  00000+0 0  9990
2 14129  25.9319 215.8523 6003352 121.8543 310.3469  2.05870648295953
UOSAT 2 (UO-11)         
1 14781U 84021B   26190.70623792  .00000917  00000+0  98723-4 0  9999
2 14781  97.8072 156.0317 0009167 106.4358 253.7868 14.90840274260487
LUSAT (LO-19)           
1 20442U 90005G   26190.99628548  .00000053  00000+0  35474-4 0  9999
2 20442  98.8846 213.4297 0012347 135.6081 224.6095 14.34129751905667
EYESAT A (AO-27)        
1 22825U 93061C   26191.14461452  .00000035  00000+0  30481-4 0  9991
2 22825  98.6870 258.5486 0009032  39.7683 320.4160 14.30948234710289
ITAMSAT (IO-26)         
1 22826U 93061D   26191.11717444  .00000031  00000+0  28397-4 0  9993
2 22826  98.6818 258.4411 0009248  23.7916 336.3692 14.31375759710597
RADIO ROSTO (RS15)      
1 23439U 94085A   26191.52990073 -.00000037  00000+0  14511-3 0  9996
2 23439  64.8160 265.4657 0156744 359.5677   0.5088 11.27583506298538
JAS-2 (FO-29)           
1 24278U 96046B   26191.00858423  .00000009  00000+0  43570-4 0  9998
2 24278  98.5223  36.7525 0350566  37.3768 325.1213 13.53275218476259
TECHSAT 1B (GO-32)      
1 25397U 98043D   26191.38503001  .00000024  00000+0  30598-4 0  9993
2 25397  99.0081 184.7300 0002059 122.4891 237.6486 14.24432755454636
PCSAT (NO-44)           
1 26931U 01043C   26191.34792089  .00000063  00000+0  54387-4 0  9999
2 26931  67.0490 184.3668 0005970 266.2489  93.7930 14.31963832293761
SAUDISAT 1C (SO-50)     
1 27607U 02058C   26191.08192997  .00000486  00000+0  75179-4 0  9991
2 27607  64.5517  58.1476 0074678 258.2262 101.0460 14.83092603267858
CUTE-1 (CO-55)          
1 27844U 03031E   26191.00816836  .00000182  00000+0  97603-4 0  9992
2 27844  98.6739 199.2802 0010718 116.0719 244.1564 14.24349450194929
CUBESAT XI-IV (CO-57)   
1 27848U 03031J   26190.51611381  .00000164  00000+0  91111-4 0  9997
2 27848  98.6771 198.4889 0010342 134.3964 225.8063 14.23632552194559
MOZHAETS 4 (RS22)       
1 27939U 03042A   26191.64517083  .00000930  00000+0  15138-3 0  9994
2 27939  98.3480  16.6681 0010884 187.7540 261.0597 14.73510623219009
CUBESAT XI-V            
1 28895U 05043F   26191.36800381  .00000898  00000+0  14887-3 0  9997
2 28895  98.3010 347.4805 0015096 129.3634 230.8913 14.72694805105160
CUTE-1.7+APD II (CO-65) 
1 32785U 08021C   26191.58137505  .00003050  00000+0  19354-3 0  9991
2 32785  97.8282 173.4914 0007374 318.0281  42.0381 15.09672610988725
SEEDS II (CO-66)        
1 32791U 08021J   26191.43592964  .00013245  00000+0  41058-3 0  9999
2 32791  97.7526 190.4573 0002534 167.6964 192.4340 15.33559548990854
YUBILEINY (RS30)        
1 32953U 08025A   26191.59805900 -.00000071  00000+0 -58150-3 0  9993
2 32953  82.5056 340.8763 0018553 259.6713 100.2276 12.43180147822603
KKS-1 (KISEKI)          
1 33499U 09002H   26191.59945141  .00000729  00000+0  96124-4 0  9999
2 33499  98.1178 114.4127 0007052 204.7853 155.3023 14.83182446939660
SWISSCUBE               
1 35932U 09051B   26191.22499737  .00000600  00000+0  12813-3 0  9992
2 35932  98.4015  99.5130 0007597 132.4528 227.7317 14.62525191892522
BEESAT-1                
1 35933U 09051C   26190.56195696  .00000529  00000+0  11590-3 0  9997
2 35933  98.3943  98.4270 0005799 144.7622 215.3963 14.61756321892450
ITUPSAT1                
1 35935U 09051E   26191.18906354  .00000448  00000+0  10253-3 0  9994
2 35935  98.4025  98.2308 0007739 157.5053 202.6487 14.60474362892091
XIWANG-1 (HOPE-1)       
1 36122U 09072B   26191.57561068 -.00000390  00000+0 -90620-3 0  9992
2 36122 100.4031 145.0349 0007421 175.2632 184.8552 13.16438699796084
O/OREOS (USA 219)       
1 37224U 10062C   26190.96510575  .00001388  00000+0  13649-3 0  9998
2 37224  71.9708  28.7386 0013679  15.3805 344.7778 14.93839355120041
JUGNU                   
1 37839U 11058B   26191.24549707  .00000373  00000+0  55482-4 0  9992
2 37839  19.9589 168.3368 0018418 331.7435 144.8891 14.13782641762294
SRMSAT                  
1 37841U 11058D   26191.25823061  .00000355  00000+0  48960-4 0  9997
2 37841  19.9719 279.8299 0011870  97.3618 287.0554 14.11580397761080
STRAND-1                
1 39090U 13009E   26191.44882477  .00000176  00000+0  73431-4 0  9992
2 39090  98.3931  11.1117 0009149 154.2343 205.9301 14.37177134700402
ZACUBE-1 (TSHEPISOSAT)  
1 39417U 13066B   26191.46915967  .00001650  00000+0  13060-3 0  9990
2 39417  97.8014 153.9218 0043741 170.3489 189.8585 15.01316108684227
GOMX-1                  
1 39430U 13066Q   26191.60927013  .00001009  00000+0  15749-3 0  9990
2 39430  97.6478  30.5941 0128735   2.9471 357.2465 14.69535778673354
